[{"OBJECT_NAME":"STARLINK-4636","OBJECT_ID":"2022-107AH","EPOCH":"2026-03-09T21:32:58.902144","MEAN_MOTION":15.11900784,"ECCENTRICITY":0.00053969,"INCLINATION":53.213,"RA_OF_ASC_NODE":252.5823,"ARG_OF_PERICENTER":143.7657,"MEAN_ANOMALY":216.3703,"EPHEMERIS_TYPE":0,"CLASSIFICATION_TYPE":"U","NORAD_CAT_ID":53731,"ELEMENT_SET_NO":999,"REV_AT_EPOCH":19462,"BSTAR":0.0016595438,"MEAN_MOTION_DOT":0.00028566,"MEAN_MOTION_DDOT":0},{"OBJECT_NAME":"DIAMANT R\/B","OBJECT_ID":"1965-096B","EPOCH":"2026-03-09T06:37:58.450944","MEAN_MOTION":13.87748546,"ECCENTRICITY":0.05835308,"INCLINATION":34.2444,"RA_OF_ASC_NODE":152.0838,"ARG_OF_PERICENTER":53.3256,"MEAN_ANOMALY":311.9607,"EPHEMERIS_TYPE":0,"CLASSIFICATION_TYPE":"U","NORAD_CAT_ID":1805,"ELEMENT_SET_NO":999,"REV_AT_EPOCH":99082,"BSTAR":0.00024432239,"MEAN_MOTION_DOT":1.159e-5,"MEAN_MOTION_DDOT":0}]
